NORAD_CAT_ID,OBJECT_NAME,OBJECT_TYPE,EPOCH,MEAN_MOTION,ECCENTRICITY,INCLINATION,RA_OF_ASC_NODE,ARG_OF_PERICENTER,MEAN_ANOMALY,BSTAR,MEAN_MOTION_DOT,MEAN_MOTION_DDOT,TLE_LINE0,TLE_LINE1,TLE_LINE2,SEMIMAJOR_AXIS,PERIOD,APOGEE,PERIGEE,DECAYED
54787.0,STARLINK-5441,PAYLOAD,2023-06-27 07:30:46,15.0884162,0.000105,53.2164,151.8582,91.0738,269.0374,6.6617e-05,7.73e-06,0.0,0 STARLINK-5441,1 54787U 22175AF  23178.31304268  .00000773  00000-0  66617-4 0  9993,2 54787  53.2164 151.8582 0001050  91.0738 269.0374 15.08841620 28857,6917.875,95.437,540.467,539.014,0.0
54787.0,STARLINK-5441,PAYLOAD,2023-06-27 15:27:42,15.08836497,0.0001067,53.217,150.371,85.9278,274.1837,2.5018e-05,1.1e-06,0.0,0 STARLINK-5441,1 54787U 22175AF  23178.64424757  .00000110  00000-0  25018-4 0  9990,2 54787  53.2170 150.3710 0001067  85.9278 274.1837 15.08836497 28903,6917.891,95.438,540.494,539.018,0.0
54787.0,STARLINK-5441,PAYLOAD,2023-06-29 02:26:11,15.08842968,0.0001129,53.217,143.8286,85.8283,274.2838,6.2997e-05,7.15e-06,0.0,0 STARLINK-5441,1 54787U 22175AF  23180.10152399  .00000715  00000-0  62997-4 0  9992,2 54787  53.2170 143.8286 0001129  85.8283 274.2838 15.08842968 29129,6917.871,95.437,540.517,538.955,0.0
54787.0,STARLINK-5441,PAYLOAD,2023-07-01 02:07:46,15.08834099,0.0001244,53.2173,134.9085,98.1717,261.9416,-7.515e-05,-1.483e-05,0.0,0 STARLINK-5441,1 54787U 22175AF  23182.08873260 -.00001483  00000-0 -75150-4 0  9998,2 54787  53.2173 134.9085 0001244  98.1717 261.9416 15.08834099 29421,6917.898,95.438,540.624,538.903,0.0
54787.0,STARLINK-5441,PAYLOAD,2023-07-02 05:09:19,15.08839681,0.0001237,53.2175,129.854,95.1745,264.9388,-6.2455e-06,-3.87e-06,0.0,0 STARLINK-5441,1 54787U 22175AF  23183.21481087 -.00000387  00000-0 -62455-5 0  9993,2 54787  53.2175 129.8540 0001237  95.1745 264.9388 15.08839681 29593,6917.881,95.438,540.602,538.891,0.0
54787.0,STARLINK-5441,PAYLOAD,2023-07-03 12:57:02,15.08836635,0.0001211,53.2176,123.9071,97.6233,262.4897,7.7803e-05,9.5e-06,0.0,0 STARLINK-5441,1 54787U 22175AF  23184.53961351  .00000950  00000-0  77803-4 0  9992,2 54787  53.2176 123.9071 0001211  97.6233 262.4897 15.08836635 29795,6917.891,95.438,540.593,538.918,0.0
54787.0,STARLINK-5441,PAYLOAD,2023-07-04 23:55:31,15.08837735,0.0001155,53.2181,117.3659,99.5405,260.5718,0.0001204,1.629e-05,0.0,0 STARLINK-5441,1 54787U 22175AF  23185.99689468  .00001629  00000-0  12040-3 0  9994,2 54787  53.2181 117.3659 0001155  99.5405 260.5718 15.08837735 30019,6917.887,95.438,540.551,538.953,0.0
54787.0,STARLINK-5441,PAYLOAD,2023-07-05 04:41:40,15.08850139,0.0001238,53.2179,116.4732,90.3784,269.735,7.9064e-05,9.71e-06,0.0,0 STARLINK-5441,1 54787U 22175AF  23186.19560738  .00000971  00000-0  79064-4 0  9994,2 54787  53.2179 116.4732 0001238  90.3784 269.7350 15.08850139 30048,6917.849,95.437,540.571,538.858,0.0
54787.0,STARLINK-5441,PAYLOAD,2023-07-05 12:38:36,15.08843326,0.0001243,53.2179,114.9865,85.947,274.1664,1.2557e-05,-8.8e-07,0.0,0 STARLINK-5441,1 54787U 22175AF  23186.52681336 -.00000088  00000-0  12557-4 0  9993,2 54787  53.2179 114.9865 0001243  85.9470 274.1664 15.08843326 30099,6917.87,95.437,540.595,538.875,0.0
54787.0,STARLINK-5441,PAYLOAD,2023-07-06 01:21:42,15.08833693,0.0001308,53.2179,112.6057,84.5493,275.5648,3.4539e-05,2.62e-06,0.0,0 STARLINK-5441,1 54787U 22175AF  23187.05673988  .00000262  00000-0  34539-4 0  9993,2 54787  53.2179 112.6057 0001308  84.5493 275.5648 15.08833693 30171,6917.9,95.438,540.67,538.86,0.0
54787.0,STARLINK-5441,PAYLOAD,2023-07-06 15:40:10,15.08841449,0.0001309,53.2175,109.931,87.5355,272.5787,4.7415e-05,4.67e-06,0.0,0 STARLINK-5441,1 54787U 22175AF  23187.65289474  .00000467  00000-0  47415-4 0  9996,2 54787  53.2175 109.9310 0001309  87.5355 272.5787 15.08841449 30268,6917.876,95.437,540.647,538.835,0.0
54787.0,STARLINK-5441,PAYLOAD,2023-07-07 04:23:14,15.08854049,0.0001332,53.2179,107.5505,91.1678,268.9467,6.2134e-05,7.01e-06,0.0,0 STARLINK-5441,1 54787U 22175AF  23188.18280452  .00000701  00000-0  62134-4 0  9998,2 54787  53.2179 107.5505 0001332  91.1678 268.9467 15.08854049 30340,6917.837,95.437,540.624,538.781,0.0
54787.0,STARLINK-5441,PAYLOAD,2023-07-08 01:03:16,15.08836749,0.0001554,53.218,103.684,89.3927,270.7243,3.8153e-05,3.19e-06,0.0,0 STARLINK-5441,1 54787U 22175AF  23189.04393686  .00000319  00000-0  38153-4 0  9997,2 54787  53.2180 103.6840 0001554  89.3927 270.7243 15.08836749 30477,6917.89,95.438,540.83,538.68,0.0
54787.0,STARLINK-5441,PAYLOAD,2023-07-08 04:14:02,15.08825124,0.0001464,53.2182,103.0885,95.67,264.4459,0.00015966,2.253e-05,0.0,0 STARLINK-5441,1 54787U 22175AF  23189.17642015  .00002253  00000-0  15966-3 0  9999,2 54787  53.2182 103.0885 0001464  95.6700 264.4459 15.08825124 30497,6917.926,95.438,540.804,538.778,0.0
54787.0,STARLINK-5441,PAYLOAD,2023-07-09 04:04:49,15.08842432,0.0001335,53.2175,98.6298,85.7954,274.3191,-5.8297e-06,-3.81e-06,0.0,0 STARLINK-5441,1 54787U 22175AF  23190.17001617 -.00000381  00000-0 -58297-5 0  9996,2 54787  53.2175  98.6298 0001335  85.7954 274.3191 15.08842432 30645,6917.873,95.437,540.661,538.814,0.0
54787.0,STARLINK-5441,PAYLOAD,2023-07-09 10:26:22,15.08832193,0.0001781,53.2178,97.4398,89.1851,270.9345,-6.951e-05,-1.394e-05,0.0,0 STARLINK-5441,1 54787U 22175AF  23190.43498501 -.00001394  00000-0 -69510-4 0  9991,2 54787  53.2178  97.4398 0001781  89.1851 270.9345 15.08832193 30685,6917.904,95.438,541.001,538.537,0.0
54787.0,STARLINK-5441,PAYLOAD,2023-07-10 02:20:13,15.08839024,0.0001236,53.2178,94.4673,81.5348,278.5785,6.1494e-05,6.91e-06,0.0,0 STARLINK-5441,1 54787U 22175AF  23191.09737926  .00000691  00000-0  61494-4 0  9991,2 54787  53.2178  94.4673 0001236  81.5348 278.5785 15.08839024 30783,6917.883,95.438,540.603,538.893,0.0
54787.0,STARLINK-5441,PAYLOAD,2023-07-11 00:35:37,15.08837343,0.0001192,53.2181,90.3053,85.26,274.8529,7.9766e-06,-1.61e-06,0.0,0 STARLINK-5441,1 54787U 22175AF  23192.02474461 -.00000161  00000-0  79766-5 0  9992,2 54787  53.2181  90.3053 0001192  85.2600 274.8529 15.08837343 30920,6917.889,95.438,540.578,538.929,0.0
54787.0,STARLINK-5441,PAYLOAD,2023-07-11 03:46:23,15.08843516,0.0001194,53.2181,89.7106,84.9114,275.2014,6.0369e-05,6.73e-06,0.0,0 STARLINK-5441,1 54787U 22175AF  23192.15721958  .00000673  00000-0  60369-4 0  9997,2 54787  53.2181  89.7106 0001194  84.9114 275.2014 15.08843516 30944,6917.87,95.437,540.561,538.909,0.0
54787.0,STARLINK-5441,PAYLOAD,2023-07-12 00:26:24,15.08842007,0.0001222,53.2183,85.8453,90.6434,269.4698,4.8115e-05,4.78e-06,0.0,0 STARLINK-5441,1 54787U 22175AF  23193.01834139  .00000478  00000-0  48115-4 0  9997,2 54787  53.2183  85.8453 0001222  90.6434 269.4698 15.08842007 31071,6917.874,95.437,540.585,538.894,0.0
54787.0,STARLINK-5441,PAYLOAD,2023-07-13 16:11:03,15.08837907,0.0001323,53.2178,78.4117,79.1583,280.9558,2.2809e-05,7.5e-07,0.0,0 STARLINK-5441,1 54787U 22175AF  23194.67434757  .00000075  00000-0  22809-4 0  9997,2 54787  53.2178  78.4117 0001323  79.1583 280.9558 15.08837907 31323,6917.887,95.438,540.667,538.837,0.0
54787.0,STARLINK-5441,PAYLOAD,2023-07-14 01:43:22,15.08846641,0.0001263,53.2179,76.6263,90.3192,269.7945,-4.9189e-06,-3.66e-06,0.0,0 STARLINK-5441,1 54787U 22175AF  23195.07178256 -.00000366  00000-0 -49189-5 0  9997,2 54787  53.2179  76.6263 0001263  90.3192 269.7945 15.08846641 31386,6917.86,95.437,540.599,538.851,0.0
54787.0,STARLINK-5441,PAYLOAD,2023-07-15 17:28:00,15.08836902,0.0001223,53.2186,69.1913,91.3206,268.7926,-1.2954e-05,-4.94e-06,0.0,0 STARLINK-5441,1 54787U 22175AF  23196.72778904 -.00000494  00000-0 -12954-4 0  9997,2 54787  53.2186  69.1913 0001223  91.3206 268.7926 15.08836902 31631,6917.89,95.438,540.601,538.909,0.0
54787.0,STARLINK-5441,PAYLOAD,2023-07-16 20:29:34,15.08841927,0.0001175,53.2179,64.1367,84.0688,276.0438,-1.7218e-05,-5.62e-06,0.0,0 STARLINK-5441,1 54787U 22175AF  23197.85386797 -.00000562  00000-0 -17218-4 0  9991,2 54787  53.2179  64.1367 0001175  84.0688 276.0438 15.08841927 31802,6917.874,95.437,540.552,538.927,0.0
54787.0,STARLINK-5441,PAYLOAD,2023-07-18 01:06:30,15.08847244,0.000124,53.2183,58.7864,92.8561,267.2574,0.00017141,2.442e-05,0.0,0 STARLINK-5441,1 54787U 22175AF  23199.04618062  .00002442  00000-0  17141-3 0  9998,2 54787  53.2183  58.7864 0001240  92.8561 267.2574 15.08847244 31988,6917.858,95.437,540.581,538.865,0.0
54787.0,STARLINK-5441,PAYLOAD,2023-07-18 17:00:22,15.08835577,9.57e-05,53.2174,55.8084,99.8316,260.2784,-4.5055e-05,-1.005e-05,0.0,0 STARLINK-5441,1 54787U 22175AF  23199.70859464 -.00001005  00000-0 -45055-4 0  9996,2 54787  53.2174  55.8084 0000957  99.8316 260.2784 15.08835577 32083,6917.894,95.438,540.421,539.097,0.0
54787.0,STARLINK-5441,PAYLOAD,2023-07-19 18:26:33,15.08826497,0.0001319,53.2186,51.0564,95.5382,264.5761,-5.606e-05,-1.18e-05,0.0,0 STARLINK-5441,1 54787U 22175AF  23200.76844801 -.00001180  00000-0 -56060-4 0  9996,2 54787  53.2186  51.0564 0001319  95.5382 264.5761 15.08826497 32247,6917.922,95.438,540.699,538.874,0.0
54787.0,STARLINK-5441,PAYLOAD,2023-07-20 23:03:30,15.0883387,7.7e-05,53.2176,45.7008,85.0303,275.0777,4.6124e-05,4.46e-06,0.0,0 STARLINK-5441,1 54787U 22175AF  23201.96077009  .00000446  00000-0  46124-4 0  9999,2 54787  53.2176  45.7008 0000770  85.0303 275.0777 15.08833870 32423,6917.899,95.438,540.297,539.231,0.0
54787.0,STARLINK-5441,PAYLOAD,2023-07-21 13:21:57,15.08842406,7.35e-05,53.2177,43.0239,77.7917,282.3158,0.00031382,4.711e-05,0.0,0 STARLINK-5441,1 54787U 22175AF  23202.55691713  .00004711  00000-0  31382-3 0  9997,2 54787  53.2177  43.0239 0000735  77.7917 282.3158 15.08842406 32510,6917.873,95.437,540.246,539.23,0.0
54787.0,STARLINK-5441,PAYLOAD,2023-07-24 00:11:13,15.08849249,9.53e-05,53.2177,32.0217,104.8261,255.2837,-9.0611e-05,-1.73e-05,0.0,0 STARLINK-5441,1 54787U 22175AF  23205.00779347 -.00001730  00000-0 -90611-4 0  9991,2 54787  53.2177  32.0217 0000953 104.8261 255.2837 15.08849249 35046,6917.852,95.437,540.376,539.058,0.0
